[{"OBJECT_NAME":"STARLINK-34092","OBJECT_ID":"2025-095Q","EPOCH":"2026-03-08T08:59:45.354336","MEAN_MOTION":15.2761699,"ECCENTRICITY":0.0004049,"INCLINATION":43.0048,"RA_OF_ASC_NODE":183.9185,"ARG_OF_PERICENTER":289.7092,"MEAN_ANOMALY":70.3323,"EPHEMERIS_TYPE":0,"CLASSIFICATION_TYPE":"U","NORAD_CAT_ID":63904,"ELEMENT_SET_NO":999,"REV_AT_EPOCH":4757,"BSTAR":0.00074418038,"MEAN_MOTION_DOT":0.00020298,"MEAN_MOTION_DDOT":0},{"OBJECT_NAME":"CZ-6A R\/B","OBJECT_ID":"2023-168B","EPOCH":"2026-03-09T21:13:08.722272","MEAN_MOTION":15.16100791,"ECCENTRICITY":0.00607667,"INCLINATION":97.7542,"RA_OF_ASC_NODE":104.7688,"ARG_OF_PERICENTER":339.2379,"MEAN_ANOMALY":20.6386,"EPHEMERIS_TYPE":0,"CLASSIFICATION_TYPE":"U","NORAD_CAT_ID":58200,"ELEMENT_SET_NO":999,"REV_AT_EPOCH":12979,"BSTAR":0.00029693841,"MEAN_MOTION_DOT":5.919e-5,"MEAN_MOTION_DDOT":0}]
